[{"OBJECT_NAME":"STARLINK-5746","OBJECT_ID":"2023-083BC","EPOCH":"2026-03-09T23:00:04.749984","MEAN_MOTION":15.0380119,"ECCENTRICITY":0.00024094,"INCLINATION":43.0019,"RA_OF_ASC_NODE":67.0685,"ARG_OF_PERICENTER":315.3692,"MEAN_ANOMALY":44.6957,"EPHEMERIS_TYPE":0,"CLASSIFICATION_TYPE":"U","NORAD_CAT_ID":56926,"ELEMENT_SET_NO":999,"REV_AT_EPOCH":15186,"BSTAR":0.0075848224,"MEAN_MOTION_DOT":0.00107397,"MEAN_MOTION_DDOT":0},{"OBJECT_NAME":"SL-16 DEB","OBJECT_ID":"1992-093Q","EPOCH":"2026-03-09T20:54:01.402848","MEAN_MOTION":15.00181451,"ECCENTRICITY":0.00550249,"INCLINATION":71.1124,"RA_OF_ASC_NODE":226.4429,"ARG_OF_PERICENTER":133.8558,"MEAN_ANOMALY":343.0626,"EPHEMERIS_TYPE":0,"CLASSIFICATION_TYPE":"U","NORAD_CAT_ID":22327,"ELEMENT_SET_NO":999,"REV_AT_EPOCH":74843,"BSTAR":0.0011337635,"MEAN_MOTION_DOT":0.00014594,"MEAN_MOTION_DDOT":0}]
